{
  "type": "FeatureCollection",
  "features": [
    {
      "type": "Feature",
      "properties": {
        "norad_id": 66619,
        "name": "STARLINK-35951",
        "group": "last-30-days",
        "lat": 41.96066535882457,
        "lon": -140.54422112391055,
        "alt_km": 413.3467580934157,
        "timestamp": "2025-12-14T20:40:30.515670+00:00",
        "meta_object_name": "STARLINK-35951",
        "meta_object_id": "2025-271C",
        "meta_epoch": "2025-12-14T06:00:02.999808",
        "meta_mean_motion": 15.4939485,
        "meta_eccentricity": 4.814e-05,
        "meta_inclination": 53.1602,
        "meta_ra_of_asc_node": 179.9946,
        "meta_arg_of_pericenter": 116.713,
        "meta_mean_anomaly": 127.8459,
        "meta_ephemeris_type": 0,
        "meta_classification_type": "U",
        "meta_norad_cat_id": 66619,
        "meta_element_set_no": 999,
        "meta_rev_at_epoch": 448,
        "meta_bstar": -0.002705641,
        "meta_mean_motion_dot": -0.00148542,
        "meta_mean_motion_ddot": 0,
        "tle_line1": "1 66619U 25271C   25348.25003472 -.00148542  00000+0 -27056-2 0  9997",
        "tle_line2": "2 66619  53.1602 179.9946 0000481 116.7130 127.8459 15.49394850  4484"
      },
      "geometry": {
        "type": "Point",
        "coordinates": [
          -140.54422112391055,
          41.96066535882457
        ]
      }
    },
    {
      "type": "Feature",
      "properties": {
        "norad_id": 66620,
        "name": "STARLINK-35936",
        "group": "last-30-days",
        "lat": 38.40945605898613,
        "lon": -146.44513538907418,
        "alt_km": 413.38148768769497,
        "timestamp": "2025-12-14T20:40:30.515680+00:00",
        "meta_object_name": "STARLINK-35936",
        "meta_object_id": "2025-271D",
        "meta_epoch": "2025-12-14T06:00:02.999808",
        "meta_mean_motion": 15.493505,
        "meta_eccentricity": 8.731e-05,
        "meta_inclination": 53.1601,
        "meta_ra_of_asc_node": 180.0078,
        "meta_arg_of_pericenter": 62.2394,
        "meta_mean_anomaly": 176.5969,
        "meta_ephemeris_type": 0,
        "meta_classification_type": "U",
        "meta_norad_cat_id": 66620,
        "meta_element_set_no": 999,
        "meta_rev_at_epoch": 448,
        "meta_bstar": -0.0016207385,
        "meta_mean_motion_dot": -0.00089689,
        "meta_mean_motion_ddot": 0,
        "tle_line1": "1 66620U 25271D   25348.25003472 -.00089689  00000+0 -16207-2 0  9991",
        "tle_line2": "2 66620  53.1601 180.0078 0000873  62.2394 176.5969 15.49350500  4487"
      },
      "geometry": {
        "type": "Point",
        "coordinates": [
          -146.44513538907418,
          38.40945605898613
        ]
      }
    },
    {
      "type": "Feature",
      "properties": {
        "norad_id": 66621,
        "name": "STARLINK-35847",
        "group": "last-30-days",
        "lat": 50.28833900867339,
        "lon": -67.54403417536216,
        "alt_km": 411.85243466238444,
        "timestamp": "2025-12-14T20:40:30.515690+00:00",
        "meta_object_name": "STARLINK-35847",
        "meta_object_id": "2025-271E",
        "meta_epoch": "2025-12-14T06:00:02.999808",
        "meta_mean_motion": 15.49400218,
        "meta_eccentricity": 7.476e-05,
        "meta_inclination": 53.1601,
        "meta_ra_of_asc_node": 179.891,
        "meta_arg_of_pericenter": 67.983,
        "meta_mean_anomaly": 225.7588,
        "meta_ephemeris_type": 0,
        "meta_classification_type": "U",
        "meta_norad_cat_id": 66621,
        "meta_element_set_no": 999,
        "meta_rev_at_epoch": 448,
        "meta_bstar": -0.0027953596,
        "meta_mean_motion_dot": -0.0015339,
        "meta_mean_motion_ddot": 0,
        "tle_line1": "1 66621U 25271E   25348.25003472 -.00153390  00000+0 -27954-2 0  9994",
        "tle_line2": "2 66621  53.1601 179.8910 0000747  67.9830 225.7588 15.49400218  4482"
      },
      "geometry": {
        "type": "Point",
        "coordinates": [
          -67.54403417536216,
          50.28833900867339
        ]
      }
    },
    {
      "type": "Feature",
      "properties": {
        "norad_id": 66622,
        "name": "STARLINK-35950",
        "group": "last-30-days",
        "lat": 43.08324056277731,
        "lon": -138.4123268078366,
        "alt_km": 412.7999589454603,
        "timestamp": "2025-12-14T20:40:30.515700+00:00",
        "meta_object_name": "STARLINK-35950",
        "meta_object_id": "2025-271F",
        "meta_epoch": "2025-12-14T06:00:02.999808",
        "meta_mean_motion": 15.49352848,
        "meta_eccentricity": 7.64e-05,
        "meta_inclination": 53.1601,
        "meta_ra_of_asc_node": 179.9916,
        "meta_arg_of_pericenter": 85.0465,
        "meta_mean_anomaly": 161.4622,
        "meta_ephemeris_type": 0,
        "meta_classification_type": "U",
        "meta_norad_cat_id": 66622,
        "meta_element_set_no": 999,
        "meta_rev_at_epoch": 448,
        "meta_bstar": -0.0017450764,
        "meta_mean_motion_dot": -0.0009646,
        "meta_mean_motion_ddot": 0,
        "tle_line1": "1 66622U 25271F   25348.25003472 -.00096460  00000+0 -17451-2 0  9990",
        "tle_line2": "2 66622  53.1601 179.9916 0000764  85.0465 161.4622 15.49352848  4484"
      },
      "geometry": {
        "type": "Point",
        "coordinates": [
          -138.4123268078366,
          43.08324056277731
        ]
      }
    },
    {
      "type": "Feature",
      "properties": {
        "norad_id": 66623,
        "name": "STARLINK-35920",
        "group": "last-30-days",
        "lat": 45.206123483487744,
        "lon": -133.90490946739195,
        "alt_km": 412.1495120079662,
        "timestamp": "2025-12-14T20:40:30.515709+00:00",
        "meta_object_name": "STARLINK-35920",
        "meta_object_id": "2025-271G",
        "meta_epoch": "2025-12-14T06:00:02.999808",
        "meta_mean_motion": 15.49356845,
        "meta_eccentricity": 0.0001189,
        "meta_inclination": 53.1602,
        "meta_ra_of_asc_node": 179.9828,
        "meta_arg_of_pericenter": 93.9748,
        "meta_mean_anomaly": 156.3591,
        "meta_ephemeris_type": 0,
        "meta_classification_type": "U",
        "meta_norad_cat_id": 66623,
        "meta_element_set_no": 999,
        "meta_rev_at_epoch": 448,
        "meta_bstar": -0.0012524123,
        "meta_mean_motion_dot": -0.00069602,
        "meta_mean_motion_ddot": 0,
        "tle_line1": "1 66623U 25271G   25348.25003472 -.00069602  00000+0 -12524-2 0  9995",
        "tle_line2": "2 66623  53.1602 179.9828 0001189  93.9748 156.3591 15.49356845  4481"
      },
      "geometry": {
        "type": "Point",
        "coordinates": [
          -133.90490946739195,
          45.206123483487744
        ]
      }
    },
    {
      "type": "Feature",
      "properties": {
        "norad_id": 66624,
        "name": "STARLINK-35927",
        "group": "last-30-days",
        "lat": 44.15957727849484,
        "lon": -136.21431619484454,
        "alt_km": 412.61637543594316,
        "timestamp": "2025-12-14T20:40:30.515719+00:00",
        "meta_object_name": "STARLINK-35927",
        "meta_object_id": "2025-271H",
        "meta_epoch": "2025-12-14T06:00:02.999808",
        "meta_mean_motion": 15.49346464,
        "meta_eccentricity": 7.079e-05,
        "meta_inclination": 53.1601,
        "meta_ra_of_asc_node": 179.9876,
        "meta_arg_of_pericenter": 83.0743,
        "meta_mean_anomaly": 165.3461,
        "meta_ephemeris_type": 0,
        "meta_classification_type": "U",
        "meta_norad_cat_id": 66624,
        "meta_element_set_no": 999,
        "meta_rev_at_epoch": 448,
        "meta_bstar": -0.0014502052,
        "meta_mean_motion_dot": -0.00080381,
        "meta_mean_motion_ddot": 0,
        "tle_line1": "1 66624U 25271H   25348.25003472 -.00080381  00000+0 -14502-2 0  9991",
        "tle_line2": "2 66624  53.1601 179.9876 0000707  83.0743 165.3461 15.49346464  4486"
      },
      "geometry": {
        "type": "Point",
        "coordinates": [
          -136.21431619484454,
          44.15957727849484
        ]
      }
    },
    {
      "type": "Feature",
      "properties": {
        "norad_id": 66625,
        "name": "STARLINK-35929",
        "group": "last-30-days",
        "lat": 46.17320190810986,
        "lon": -131.58712161937822,
        "alt_km": 412.03001496171873,
        "timestamp": "2025-12-14T20:40:30.515731+00:00",
        "meta_object_name": "STARLINK-35929",
        "meta_object_id": "2025-271J",
        "meta_epoch": "2025-12-14T06:00:02.999808",
        "meta_mean_motion": 15.49349128,
        "meta_eccentricity": 0.00011524,
        "meta_inclination": 53.1601,
        "meta_ra_of_asc_node": 179.9788,
        "meta_arg_of_pericenter": 88.0421,
        "meta_mean_anomaly": 164.2045,
        "meta_ephemeris_type": 0,
        "meta_classification_type": "U",
        "meta_norad_cat_id": 66625,
        "meta_element_set_no": 999,
        "meta_rev_at_epoch": 448,
        "meta_bstar": -0.0014150202,
        "meta_mean_motion_dot": -0.00078471,
        "meta_mean_motion_ddot": 0,
        "tle_line1": "1 66625U 25271J   25348.25003472 -.00078471  00000+0 -14150-2 0  9998",
        "tle_line2": "2 66625  53.1601 179.9788 0001152  88.0421 164.2045 15.49349128  4488"
      },
      "geometry": {
        "type": "Point",
        "coordinates": [
          -131.58712161937822,
          46.17320190810986
        ]
      }
    }
  ]
}